{
  "norad_id": 59103,
  "name": "ICEYE-X36",
  "history": [
    {
      "epoch": "2026-03-28T21:13:30.969408Z",
      "apogee_km": 551.5943359376934,
      "perigee_km": 544.2250222711273,
      "latitude_deg": -2.6285245456894017e-06,
      "longitude_deg": 79.9597344038741,
      "height_km": 553.7706807102334,
      "semi_major_axis_km": 6926.04667910441,
      "eccentricity": 0.000532,
      "inclination_deg": 97.8227,
      "raan_deg": 224.6372,
      "arg_perigee_deg": 220.622,
      "mean_anomaly_deg": 139.461,
      "mean_motion_rev_day": 15.06172246
    }
  ]
}